{"type":"FeatureCollection","features":[{"type":"Feature","id":"eraldis.36","geometry":{"type":"MultiPolygon","coordinates":[[[[24.67926808,58.33329298],[24.67881437,58.33643838],[24.67775356,58.33637715],[24.6778624,58.3352769],[24.67820064,58.33391092],[24.6782241,58.33380825],[24.67843663,58.33325283],[24.67846068,58.33318137],[24.67928083,58.33322159],[24.67926808,58.33329298]]]]},"geometry_name":"shape","properties":{"sys_id":20078196,"versioon":1.738062903056E12,"id":4838515,"invent_kp":"2012-01-01Z","registreerimise_kp":"2015-05-07T12:36:00Z","katastri_nr":"62401:001:1653","kvartali_nr":"SJ067","eraldise_nr":23,"pindala":2.1,"kuivendatud":false,"kasvukoht_kood":"JM","peapuuliik_kood":"KU","omandivorm_kood":"R","vkood":624,"mkood":68,"korgus":26.1,"boniteedi_kood":"2","arengukl_kood":"V","keskm_vanus":83,"tuleohu_kood":"3","keskm_raievanus":75,"juurdekasv":6.2,"rpindala_1":27,"taius_1":85,"rpindala_2":0,"taius_2":0,"tagavara_1_ha":281,"tagavara_2_ha":0,"tagavara_y_ha":0,"puude_arv":null,"puude_arv_j":null,"puude_arv_y":null,"tagavara_s_ha":0,"tagavara_l_ha":0,"liitus_a":null}},{"type":"Feature","id":"eraldis.67","geometry":{"type":"MultiPolygon","coordinates":[[[[24.69367853,58.38477793],[24.69361284,58.3846978],[24.69458585,58.3847224],[24.69462405,58.38472337],[24.6945438,58.38459753],[24.69462664,58.38457114],[24.69478648,58.38452787],[24.69487359,58.38436627],[24.69513194,58.3843818],[24.6954525,58.38440107],[24.69536445,58.38466444],[24.69500901,58.38496127],[24.69499359,58.38537573],[24.6947669,58.3857096],[24.69477773,58.38596636],[24.69477783,58.38596862],[24.69478172,58.38606106],[24.69461488,58.38603414],[24.69461215,58.38603417],[24.69406349,58.38604],[24.69401359,58.38604053],[24.69394876,58.38577346],[24.69391485,58.38569467],[24.6938336,58.38540442],[24.69383538,58.38537698],[24.69375019,58.38501337],[24.69371124,58.38482666],[24.69371037,58.38482246],[24.69367853,58.38477793]]]]},"geometry_name":"shape","properties":{"sys_id":20078191,"versioon":1.738062903053E12,"id":9762993,"invent_kp":"2012-01-01Z","registreerimise_kp":"2018-02-01T09:48:11.134Z","katastri_nr":"56801:005:0277","kvartali_nr":"TA179","eraldise_nr":8,"pindala":1.03,"kuivendatud":true,"kasvukoht_kood":"AN","peapuuliik_kood":"LM","omandivorm_kood":"R","vkood":624,"mkood":68,"korgus":26.6,"boniteedi_kood":"2","arengukl_kood":"Y","keskm_vanus":84,"tuleohu_kood":"4","keskm_raievanus":60,"juurdekasv":4.1,"rpindala_1":27.5,"taius_1":82,"rpindala_2":null,"taius_2":null,"tagavara_1_ha":305,"tagavara_2_ha":null,"tagavara_y_ha":null,"puude_arv":null,"puude_arv_j":null,"puude_arv_y":null,"tagavara_s_ha":null,"tagavara_l_ha":null,"liitus_a":null}},{"type":"Feature","id":"eraldis.69","geometry":{"type":"MultiPolygon","coordinates":[[[[24.97580225,58.56261584],[24.9762305,58.56286944],[24.9760567,58.56286712],[24.97582497,58.56280248],[24.97540746,58.56256403],[24.9749147,58.56232627],[24.97464907,58.56230311],[24.97335977,58.56117168],[24.97356118,58.56118456],[24.97386284,58.56120652],[24.97407822,58.56135115],[24.97535478,58.56220885],[24.97580225,58.56261584]]]]},"geometry_name":"shape","properties":{"sys_id":20078193,"versioon":1.738062903053E12,"id":8558483,"invent_kp":"2015-09-21Z","registreerimise_kp":"2015-11-11T11:25:37Z","katastri_nr":"93005:001:0007","kvartali_nr":null,"eraldise_nr":17,"pindala":0.6,"kuivendatud":false,"kasvukoht_kood":"ND","peapuuliik_kood":"HB","omandivorm_kood":"F","vkood":638,"mkood":68,"korgus":32.1,"boniteedi_kood":"0","arengukl_kood":"Y","keskm_vanus":85,"tuleohu_kood":"4","keskm_raievanus":null,"juurdekasv":null,"rpindala_1":null,"taius_1":null,"rpindala_2":null,"taius_2":null,"tagavara_1_ha":null,"tagavara_2_ha":null,"tagavara_y_ha":null,"puude_arv":null,"puude_arv_j":null,"puude_arv_y":null,"tagavara_s_ha":null,"tagavara_l_ha":0,"liitus_a":null}},{"type":"Feature","id":"eraldis.71","geometry":{"type":"MultiPolygon","coordinates":[[[[24.67770757,58.33839544],[24.67782228,58.33862963],[24.67734712,58.33860838],[24.67695397,58.33858966],[24.67635438,58.33856312],[24.67505334,58.33850314],[24.67418789,58.33846462],[24.67319798,58.33841933],[24.67232686,58.33837934],[24.67158585,58.33834609],[24.67100323,58.33831944],[24.67111215,58.33825199],[24.67222395,58.33757593],[24.67373912,58.33760509],[24.67441849,58.33766688],[24.67509783,58.33772719],[24.6750702,58.33776003],[24.67498525,58.33789868],[24.67492797,58.33800598],[24.67511985,58.33799159],[24.67527459,58.33795659],[24.67544904,58.33791703],[24.67624755,58.33785484],[24.676677,58.33785108],[24.67705011,58.33800365],[24.67770757,58.33839544]]]]},"geometry_name":"shape","properties":{"sys_id":20078195,"versioon":1.738062903053E12,"id":4839303,"invent_kp":"2012-01-01Z","registreerimise_kp":"2015-05-07T12:36:00Z","katastri_nr":"62401:001:1653","kvartali_nr":"SJ067","eraldise_nr":3,"pindala":2.7,"kuivendatud":false,"kasvukoht_kood":"JM","peapuuliik_kood":"KS","omandivorm_kood":"R","vkood":624,"mkood":68,"korgus":29,"boniteedi_kood":"1","arengukl_kood":"Y","keskm_vanus":83,"tuleohu_kood":"4","keskm_raievanus":60,"juurdekasv":4.4,"rpindala_1":24.3,"taius_1":75,"rpindala_2":7.2,"taius_2":27,"tagavara_1_ha":288,"tagavara_2_ha":56,"tagavara_y_ha":0,"puude_arv":null,"puude_arv_j":null,"puude_arv_y":null,"tagavara_s_ha":5,"tagavara_l_ha":5,"liitus_a":null}},{"type":"Feature","id":"eraldis.72","geometry":{"type":"MultiPolygon","coordinates":[[[[24.67959196,58.33646545],[24.67958948,58.3364833],[24.67881437,58.33643838],[24.67926808,58.33329298],[24.67928083,58.33322159],[24.68003027,58.33325772],[24.68016034,58.33326297],[24.680248,58.33326696],[24.68023243,58.33333837],[24.67984519,58.33523663],[24.67959196,58.33646545]]]]},"geometry_name":"shape","properties":{"sys_id":20078197,"versioon":1.738062903056E12,"id":4838717,"invent_kp":"2012-01-01Z","registreerimise_kp":"2015-05-07T12:36:00Z","katastri_nr":"62401:001:1653","kvartali_nr":"SJ067","eraldise_nr":24,"pindala":1.7,"kuivendatud":false,"kasvukoht_kood":"JM","peapuuliik_kood":"KU","omandivorm_kood":"R","vkood":624,"mkood":68,"korgus":26,"boniteedi_kood":"2","arengukl_kood":"L","keskm_vanus":51,"tuleohu_kood":"1","keskm_raievanus":79,"juurdekasv":9.1,"rpindala_1":22,"taius_1":87,"rpindala_2":0,"taius_2":0,"tagavara_1_ha":161,"tagavara_2_ha":0,"tagavara_y_ha":0,"puude_arv":null,"puude_arv_j":null,"puude_arv_y":null,"tagavara_s_ha":0,"tagavara_l_ha":0,"liitus_a":null}},{"type":"Feature","id":"eraldis.75","geometry":{"type":"MultiPolygon","coordinates":[[[[24.68247544,58.3330262],[24.68227002,58.33336166],[24.68219366,58.33335761],[24.68104832,58.33330429],[24.680248,58.33326696],[24.68049877,58.33205895],[24.68088883,58.33206727],[24.68161449,58.33204408],[24.68179261,58.33205055],[24.68196312,58.33210165],[24.68212809,58.33215873],[24.68233118,58.33214129],[24.6823931,58.33212907],[24.68240215,58.33215875],[24.68247922,58.33249121],[24.68253464,58.33272719],[24.68247544,58.3330262]]]]},"geometry_name":"shape","properties":{"sys_id":20078200,"versioon":1.738062903056E12,"id":4838399,"invent_kp":"2012-01-01Z","registreerimise_kp":"2015-05-07T12:36:00Z","katastri_nr":"62401:001:1653","kvartali_nr":"SJ074","eraldise_nr":1,"pindala":1.6,"kuivendatud":false,"kasvukoht_kood":"JM","peapuuliik_kood":"KU","omandivorm_kood":"R","vkood":624,"mkood":68,"korgus":26.7,"boniteedi_kood":"2","arengukl_kood":"Y","keskm_vanus":108,"tuleohu_kood":"3","keskm_raievanus":77,"juurdekasv":2.6,"rpindala_1":15,"taius_1":39,"rpindala_2":0,"taius_2":0,"tagavara_1_ha":185,"tagavara_2_ha":0,"tagavara_y_ha":0,"puude_arv":null,"puude_arv_j":null,"puude_arv_y":null,"tagavara_s_ha":10,"tagavara_l_ha":10,"liitus_a":null}},{"type":"Feature","id":"eraldis.78","geometry":{"type":"MultiPolygon","coordinates":[[[[24.51823215,58.52424533],[24.52109539,58.52366026],[24.51982025,58.52471243],[24.5193812,58.52445877],[24.51860289,58.52447647],[24.51823215,58.52424533]]]]},"geometry_name":"shape","properties":{"sys_id":20078204,"versioon":1.738062903056E12,"id":619076,"invent_kp":"2018-09-25Z","registreerimise_kp":"2018-10-30T10:33:25.416Z","katastri_nr":"14901:001:0383","kvartali_nr":null,"eraldise_nr":5,"pindala":0.73,"kuivendatud":false,"kasvukoht_kood":"AN","peapuuliik_kood":"KS","omandivorm_kood":"J","vkood":809,"mkood":68,"korgus":26.3,"boniteedi_kood":"2","arengukl_kood":"L","keskm_vanus":37,"tuleohu_kood":"5","keskm_raievanus":69,"juurdekasv":8.1,"rpindala_1":14.5,"taius_1":70,"rpindala_2":null,"taius_2":null,"tagavara_1_ha":100,"tagavara_2_ha":null,"tagavara_y_ha":0,"puude_arv":null,"puude_arv_j":null,"puude_arv_y":null,"tagavara_s_ha":null,"tagavara_l_ha":null,"liitus_a":null}},{"type":"Feature","id":"eraldis.109","geometry":{"type":"MultiPolygon","coordinates":[[[[24.80591164,58.32932599],[24.80556549,58.32930864],[24.80560291,58.32917621],[24.80591615,58.32806758],[24.80600079,58.32807451],[24.80761524,58.32819987],[24.80762374,58.32820051],[24.80758058,58.32832075],[24.80753888,58.3284662],[24.80871324,58.3285241],[24.80827683,58.32892199],[24.80875519,58.32901983],[24.80870658,58.32906337],[24.80843677,58.32916842],[24.80810204,58.32916682],[24.80803202,58.32915173],[24.80764048,58.32906735],[24.80740556,58.329045],[24.80691284,58.32885659],[24.80634016,58.32899468],[24.80616702,58.32908632],[24.80591164,58.32932599]]]]},"geometry_name":"shape","properties":{"sys_id":20078233,"versioon":1.738062903068E12,"id":10030515,"invent_kp":"2012-01-01Z","registreerimise_kp":"2018-09-24T11:15:07.920Z","katastri_nr":"75601:006:0236","kvartali_nr":"KI035","eraldise_nr":24,"pindala":1.46,"kuivendatud":false,"kasvukoht_kood":"JO","peapuuliik_kood":"KS","omandivorm_kood":"R","vkood":712,"mkood":68,"korgus":23.5,"boniteedi_kood":"3","arengukl_kood":"Y","keskm_vanus":89,"tuleohu_kood":"5","keskm_raievanus":71,"juurdekasv":3.7,"rpindala_1":21.5,"taius_1":77,"rpindala_2":4,"taius_2":14,"tagavara_1_ha":214,"tagavara_2_ha":32,"tagavara_y_ha":null,"puude_arv":null,"puude_arv_j":null,"puude_arv_y":null,"tagavara_s_ha":null,"tagavara_l_ha":null,"liitus_a":null}},{"type":"Feature","id":"eraldis.123","geometry":{"type":"MultiPolygon","coordinates":[[[[24.56699959,58.27724783],[24.56670146,58.27716243],[24.56669836,58.27716377],[24.56669476,58.27716051],[24.56881399,58.27623094],[24.56883541,58.27623484],[24.56884025,58.27623572],[24.56916512,58.27629488],[24.5706552,58.27656619],[24.57085483,58.27692351],[24.57109084,58.27718197],[24.57120445,58.27726795],[24.57117599,58.27733657],[24.57108973,58.27746455],[24.57089428,58.27756125],[24.57042327,58.27767922],[24.56931614,58.27771753],[24.56858419,58.27760528],[24.56768445,58.27743655],[24.56699959,58.27724783]]]]},"geometry_name":"shape","properties":{"sys_id":20078249,"versioon":1.738062903072E12,"id":9598421,"invent_kp":"2012-01-01Z","registreerimise_kp":"2017-11-01T12:30:48.051Z","katastri_nr":"21401:001:0773","kvartali_nr":"SJ235","eraldise_nr":19,"pindala":2.73,"kuivendatud":false,"kasvukoht_kood":"SM","peapuuliik_kood":"MA","omandivorm_kood":"R","vkood":214,"mkood":68,"korgus":19.6,"boniteedi_kood":"3","arengukl_kood":"Y","keskm_vanus":208,"tuleohu_kood":"1","keskm_raievanus":100,"juurdekasv":0.4,"rpindala_1":15.5,"taius_1":43,"rpindala_2":null,"taius_2":null,"tagavara_1_ha":178,"tagavara_2_ha":null,"tagavara_y_ha":null,"puude_arv":null,"puude_arv_j":3000,"puude_arv_y":null,"tagavara_s_ha":null,"tagavara_l_ha":null,"liitus_a":null}},{"type":"Feature","id":"eraldis.175","geometry":{"type":"MultiPolygon","coordinates":[[[[24.76810264,58.35599201],[24.76833907,58.35592697],[24.76886956,58.35587919],[24.76951984,58.35595195],[24.76977174,58.35601578],[24.76927921,58.3575035],[24.76870361,58.35727484],[24.7683491,58.35763907],[24.76789579,58.3575123],[24.76751262,58.35731547],[24.76726404,58.35706582],[24.76717602,58.35678846],[24.76725198,58.35651159],[24.767441,58.35631069],[24.76786411,58.35605763],[24.76810264,58.35599201]]]]},"geometry_name":"shape","properties":{"sys_id":20078298,"versioon":1.738062903086E12,"id":9905579,"invent_kp":"2012-01-01Z","registreerimise_kp":"2018-04-04T09:22:33.763Z","katastri_nr":"56801:006:0098","kvartali_nr":"TA328","eraldise_nr":23,"pindala":2.04,"kuivendatud":false,"kasvukoht_kood":"AN","peapuuliik_kood":"HB","omandivorm_kood":"R","vkood":624,"mkood":68,"korgus":30.2,"boniteedi_kood":"1","arengukl_kood":"Y","keskm_vanus":94,"tuleohu_kood":"5","keskm_raievanus":53,"juurdekasv":4.2,"rpindala_1":23,"taius_1":66,"rpindala_2":5,"taius_2":19,"tagavara_1_ha":274,"tagavara_2_ha":39,"tagavara_y_ha":null,"puude_arv":null,"puude_arv_j":null,"puude_arv_y":null,"tagavara_s_ha":null,"tagavara_l_ha":null,"liitus_a":null}},{"type":"Feature","id":"eraldis.227","geometry":{"type":"MultiPolygon","coordinates":[[[[24.68199694,58.33662207],[24.6855818,58.33682865],[24.68546303,58.33748671],[24.68541195,58.3377697],[24.68465877,58.33753737],[24.68363442,58.33734834],[24.68291503,58.33709771],[24.68229605,58.3368083],[24.68199694,58.33662207]]]]},"geometry_name":"shape","properties":{"sys_id":20078346,"versioon":1.738062903105E12,"id":9769213,"invent_kp":"2012-01-01Z","registreerimise_kp":"2018-02-01T12:45:23.433Z","katastri_nr":"62401:001:1653","kvartali_nr":"SJ068","eraldise_nr":4,"pindala":1.31,"kuivendatud":false,"kasvukoht_kood":"MS","peapuuliik_kood":"MA","omandivorm_kood":"R","vkood":624,"mkood":68,"korgus":24.5,"boniteedi_kood":"2","arengukl_kood":"Y","keskm_vanus":133,"tuleohu_kood":"2","keskm_raievanus":90,"juurdekasv":2.2,"rpindala_1":21.7,"taius_1":59,"rpindala_2":4.8,"taius_2":22,"tagavara_1_ha":252,"tagavara_2_ha":29,"tagavara_y_ha":null,"puude_arv":null,"puude_arv_j":null,"puude_arv_y":null,"tagavara_s_ha":null,"tagavara_l_ha":null,"liitus_a":null}},{"type":"Feature","id":"eraldis.292","geometry":{"type":"MultiPolygon","coordinates":[[[[24.77687017,58.35835157],[24.77611342,58.35870016],[24.77647096,58.35906649],[24.77729575,58.35871947],[24.77702406,58.35836142],[24.77687017,58.35835157]]]]},"geometry_name":"shape","properties":{"sys_id":20078406,"versioon":1.738062903137E12,"id":476788,"invent_kp":"2018-01-23Z","registreerimise_kp":"2018-05-21T14:31:22.120Z","katastri_nr":"56801:006:0122","kvartali_nr":null,"eraldise_nr":3,"pindala":0.3,"kuivendatud":false,"kasvukoht_kood":"TA","peapuuliik_kood":"KS","omandivorm_kood":"F","vkood":624,"mkood":68,"korgus":23.6,"boniteedi_kood":"2","arengukl_kood":"K","keskm_vanus":59,"tuleohu_kood":"5","keskm_raievanus":null,"juurdekasv":null,"rpindala_1":null,"taius_1":null,"rpindala_2":null,"taius_2":null,"tagavara_1_ha":null,"tagavara_2_ha":null,"tagavara_y_ha":null,"puude_arv":null,"puude_arv_j":null,"puude_arv_y":null,"tagavara_s_ha":null,"tagavara_l_ha":null,"liitus_a":null}},{"type":"Feature","id":"eraldis.298","geometry":{"type":"MultiPolygon","coordinates":[[[[25.06954869,58.6218526],[25.06943843,58.62225328],[25.06894156,58.6222158],[25.06886405,58.62200987],[25.0688687,58.62197565],[25.06893267,58.62192459],[25.06909976,58.621892],[25.06954869,58.6218526]]]]},"geometry_name":"shape","properties":{"sys_id":20078412,"versioon":1.738062903138E12,"id":371933,"invent_kp":"2004-08-03Z","registreerimise_kp":"2004-09-14T00:00:00Z","katastri_nr":"93004:001:0029","kvartali_nr":"-","eraldise_nr":3,"pindala":0.1,"kuivendatud":false,"kasvukoht_kood":"ND","peapuuliik_kood":"KU","omandivorm_kood":"F","vkood":638,"mkood":68,"korgus":28,"boniteedi_kood":"1","arengukl_kood":"K","keskm_vanus":81,"tuleohu_kood":"4","keskm_raievanus":null,"juurdekasv":null,"rpindala_1":null,"taius_1":null,"rpindala_2":null,"taius_2":null,"tagavara_1_ha":null,"tagavara_2_ha":null,"tagavara_y_ha":null,"puude_arv":null,"puude_arv_j":null,"puude_arv_y":null,"tagavara_s_ha":null,"tagavara_l_ha":10,"liitus_a":null}},{"type":"Feature","id":"eraldis.313","geometry":{"type":"MultiPolygon","coordinates":[[[[24.6807712,58.34134527],[24.68042229,58.34142441],[24.67960096,58.34103944],[24.68003698,58.34093458],[24.68093776,58.34060434],[24.68220075,58.34015326],[24.68286988,58.34041271],[24.68217513,58.34087413],[24.68183986,58.34107356],[24.6807712,58.34134527]]]]},"geometry_name":"shape","properties":{"sys_id":20078426,"versioon":1.738062903145E12,"id":4837943,"invent_kp":"2012-01-01Z","registreerimise_kp":"2015-05-07T12:36:00Z","katastri_nr":"62401:001:1653","kvartali_nr":"SJ063","eraldise_nr":8,"pindala":1.1,"kuivendatud":false,"kasvukoht_kood":"MS","peapuuliik_kood":"MA","omandivorm_kood":"R","vkood":624,"mkood":68,"korgus":26.5,"boniteedi_kood":"2","arengukl_kood":"K","keskm_vanus":88,"tuleohu_kood":"2","keskm_raievanus":90,"juurdekasv":4.7,"rpindala_1":22.7,"taius_1":64,"rpindala_2":10.2,"taius_2":42,"tagavara_1_ha":243,"tagavara_2_ha":71,"tagavara_y_ha":0,"puude_arv":null,"puude_arv_j":null,"puude_arv_y":null,"tagavara_s_ha":0,"tagavara_l_ha":0,"liitus_a":null}},{"type":"Feature","id":"eraldis.315","geometry":{"type":"MultiPolygon","coordinates":[[[[24.67722175,58.33957803],[24.67743532,58.33967091],[24.67776971,58.33972602],[24.67783908,58.33972671],[24.67783478,58.34011352],[24.67782583,58.34092013],[24.67862045,58.34108075],[24.67878299,58.34109654],[24.67876623,58.34120504],[24.67809328,58.34142354],[24.67735331,58.34161591],[24.67702556,58.3410866],[24.67714287,58.34018465],[24.67722175,58.33957803]]]]},"geometry_name":"shape","properties":{"sys_id":20078428,"versioon":1.738062903145E12,"id":10031501,"invent_kp":"2012-01-01Z","registreerimise_kp":"2018-09-24T19:06:33.329Z","katastri_nr":"62401:001:1653","kvartali_nr":"SJ062","eraldise_nr":19,"pindala":1.03,"kuivendatud":true,"kasvukoht_kood":"AN","peapuuliik_kood":"KU","omandivorm_kood":"R","vkood":624,"mkood":68,"korgus":27.1,"boniteedi_kood":"2","arengukl_kood":"V","keskm_vanus":83,"tuleohu_kood":"3","keskm_raievanus":78,"juurdekasv":3.8,"rpindala_1":12.5,"taius_1":36,"rpindala_2":null,"taius_2":null,"tagavara_1_ha":134,"tagavara_2_ha":null,"tagavara_y_ha":null,"puude_arv":null,"puude_arv_j":2000,"puude_arv_y":null,"tagavara_s_ha":10,"tagavara_l_ha":5,"liitus_a":null}},{"type":"Feature","id":"eraldis.316","geometry":{"type":"MultiPolygon","coordinates":[[[[24.66839392,58.32931583],[24.66790705,58.32941498],[24.66733615,58.32940311],[24.6668641,58.32938923],[24.6666376,58.32936367],[24.66662628,58.32936224],[24.66674459,58.3287464],[24.66685502,58.32816181],[24.66688702,58.32716451],[24.6668885,58.32709317],[24.66711187,58.32710389],[24.66719667,58.32710642],[24.66882807,58.32718109],[24.66881248,58.3272525],[24.66839392,58.32931583]]]]},"geometry_name":"shape","properties":{"sys_id":20078429,"versioon":1.738062903145E12,"id":4839341,"invent_kp":"2012-01-01Z","registreerimise_kp":"2015-05-07T12:36:00Z","katastri_nr":"62401:001:1653","kvartali_nr":"SJ072","eraldise_nr":11,"pindala":2.6,"kuivendatud":false,"kasvukoht_kood":"JM","peapuuliik_kood":"KS","omandivorm_kood":"R","vkood":624,"mkood":68,"korgus":28.3,"boniteedi_kood":"1","arengukl_kood":"Y","keskm_vanus":98,"tuleohu_kood":"4","keskm_raievanus":60,"juurdekasv":2.9,"rpindala_1":21,"taius_1":63,"rpindala_2":4.1,"taius_2":15,"tagavara_1_ha":257,"tagavara_2_ha":33,"tagavara_y_ha":0,"puude_arv":null,"puude_arv_j":null,"puude_arv_y":null,"tagavara_s_ha":0,"tagavara_l_ha":0,"liitus_a":null}},{"type":"Feature","id":"eraldis.317","geometry":{"type":"MultiPolygon","coordinates":[[[[24.66651685,58.3307478],[24.66592411,58.33077765],[24.66569434,58.33072832],[24.66551482,58.33064753],[24.66540641,58.33059162],[24.66534049,58.33054144],[24.66531525,58.33040188],[24.66535359,58.3300376],[24.66540284,58.32995264],[24.66603218,58.32961797],[24.6666376,58.32936367],[24.6668641,58.32938923],[24.66733615,58.32940311],[24.66790705,58.32941498],[24.66839392,58.32931583],[24.66843615,58.32930818],[24.66894341,58.32924162],[24.67030972,58.32903829],[24.67045065,58.3290212],[24.670448,58.32903013],[24.67039452,58.32933803],[24.67037147,58.32946297],[24.66840703,58.32970957],[24.66686816,58.32990338],[24.66653035,58.33071504],[24.66651685,58.3307478]]]]},"geometry_name":"shape","properties":{"sys_id":20078430,"versioon":1.738062903148E12,"id":4838765,"invent_kp":"2012-01-01Z","registreerimise_kp":"2015-05-07T12:36:00Z","katastri_nr":"62401:001:1653","kvartali_nr":"SJ072","eraldise_nr":8,"pindala":1.9,"kuivendatud":false,"kasvukoht_kood":"JK","peapuuliik_kood":"MA","omandivorm_kood":"R","vkood":624,"mkood":68,"korgus":26.9,"boniteedi_kood":"2","arengukl_kood":"Y","keskm_vanus":98,"tuleohu_kood":"2","keskm_raievanus":84,"juurdekasv":4.5,"rpindala_1":26.3,"taius_1":75,"rpindala_2":0,"taius_2":0,"tagavara_1_ha":311,"tagavara_2_ha":0,"tagavara_y_ha":0,"puude_arv":null,"puude_arv_j":null,"puude_arv_y":null,"tagavara_s_ha":0,"tagavara_l_ha":20,"liitus_a":null}},{"type":"Feature","id":"eraldis.318","geometry":{"type":"MultiPolygon","coordinates":[[[[24.68580846,58.33835363],[24.68556053,58.33839211],[24.68530297,58.33837121],[24.68534644,58.33813618],[24.68541281,58.33777026],[24.6854638,58.33748615],[24.68610957,58.33756292],[24.68592245,58.33825791],[24.68580846,58.33835363]]]]},"geometry_name":"shape","properties":{"sys_id":20078431,"versioon":1.738062903148E12,"id":4838167,"invent_kp":"2012-01-01Z","registreerimise_kp":"2015-05-07T12:36:00Z","katastri_nr":"62401:001:1653","kvartali_nr":"SJ068","eraldise_nr":5,"pindala":0.3,"kuivendatud":false,"kasvukoht_kood":"MS","peapuuliik_kood":"MA","omandivorm_kood":"R","vkood":624,"mkood":68,"korgus":30.6,"boniteedi_kood":"1","arengukl_kood":"K","keskm_vanus":66,"tuleohu_kood":"2","keskm_raievanus":82,"juurdekasv":8.8,"rpindala_1":24.5,"taius_1":71,"rpindala_2":0,"taius_2":0,"tagavara_1_ha":260,"tagavara_2_ha":0,"tagavara_y_ha":0,"puude_arv":null,"puude_arv_j":null,"puude_arv_y":null,"tagavara_s_ha":0,"tagavara_l_ha":0,"liitus_a":null}},{"type":"Feature","id":"eraldis.339","geometry":{"type":"MultiPolygon","coordinates":[[[[24.81082306,58.33043137],[24.812965,58.330921],[24.81323291,58.33093858],[24.81408695,58.33114359],[24.81401178,58.3313976],[24.81390595,58.33137534],[24.81383234,58.33135969],[24.81354993,58.33129966],[24.81274463,58.33112848],[24.81012009,58.33057052],[24.80967381,58.33047565],[24.80965009,58.3304706],[24.80984161,58.33022181],[24.80986544,58.33022689],[24.81030359,58.33032045],[24.81082306,58.33043137]]]]},"geometry_name":"shape","properties":{"sys_id":20078452,"versioon":1.738062903155E12,"id":10029727,"invent_kp":"2012-01-01Z","registreerimise_kp":"2018-09-24T00:07:08.969Z","katastri_nr":"75601:006:0236","kvartali_nr":"KI035","eraldise_nr":14,"pindala":0.78,"kuivendatud":true,"kasvukoht_kood":"MO","peapuuliik_kood":"MA","omandivorm_kood":"R","vkood":712,"mkood":68,"korgus":21.6,"boniteedi_kood":"3","arengukl_kood":"Y","keskm_vanus":125,"tuleohu_kood":"3","keskm_raievanus":97,"juurdekasv":3.2,"rpindala_1":27,"taius_1":80,"rpindala_2":4,"taius_2":16,"tagavara_1_ha":290,"tagavara_2_ha":28,"tagavara_y_ha":null,"puude_arv":null,"puude_arv_j":null,"puude_arv_y":null,"tagavara_s_ha":null,"tagavara_l_ha":null,"liitus_a":null}},{"type":"Feature","id":"eraldis.368","geometry":{"type":"MultiPolygon","coordinates":[[[[25.06089354,58.36883915],[25.06099715,58.36902382],[25.06112167,58.36932021],[25.06118519,58.36957592],[25.06118619,58.36984516],[25.06036946,58.36977816],[25.06035573,58.36977703],[25.06062107,58.36932809],[25.06089354,58.36883915]]]]},"geometry_name":"shape","properties":{"sys_id":19805830,"versioon":1.738062786669E12,"id":10033055,"invent_kp":"2014-01-01Z","registreerimise_kp":"2018-09-26T11:15:05.125Z","katastri_nr":"36001:001:2419","kvartali_nr":"SS234","eraldise_nr":1,"pindala":0.25,"kuivendatud":false,"kasvukoht_kood":"MS","peapuuliik_kood":"KU","omandivorm_kood":"R","vkood":615,"mkood":84,"korgus":25.2,"boniteedi_kood":"2","arengukl_kood":"Y","keskm_vanus":127,"tuleohu_kood":"3","keskm_raievanus":84,"juurdekasv":3.4,"rpindala_1":31,"taius_1":82,"rpindala_2":4,"taius_2":14,"tagavara_1_ha":387,"tagavara_2_ha":32,"tagavara_y_ha":null,"puude_arv":null,"puude_arv_j":null,"puude_arv_y":null,"tagavara_s_ha":5,"tagavara_l_ha":10,"liitus_a":null}},{"type":"Feature","id":"eraldis.381","geometry":{"type":"MultiPolygon","coordinates":[[[[25.0925808,58.6269971],[25.09276479,58.62677559],[25.09308303,58.62656483],[25.09421035,58.62671426],[25.09443245,58.6267094],[25.09416194,58.62689746],[25.09341633,58.62701824],[25.0925808,58.6269971]]]]},"geometry_name":"shape","properties":{"sys_id":20078480,"versioon":1.738062903168E12,"id":2837097,"invent_kp":"2008-06-05Z","registreerimise_kp":"2008-07-17T10:41:11Z","katastri_nr":"93004:001:0159","kvartali_nr":"-","eraldise_nr":10,"pindala":0.3,"kuivendatud":true,"kasvukoht_kood":"AN","peapuuliik_kood":"KS","omandivorm_kood":"F","vkood":638,"mkood":68,"korgus":26.7,"boniteedi_kood":"2","arengukl_kood":"K","keskm_vanus":62,"tuleohu_kood":"4","keskm_raievanus":null,"juurdekasv":null,"rpindala_1":null,"taius_1":null,"rpindala_2":null,"taius_2":null,"tagavara_1_ha":null,"tagavara_2_ha":null,"tagavara_y_ha":null,"puude_arv":null,"puude_arv_j":null,"puude_arv_y":null,"tagavara_s_ha":null,"tagavara_l_ha":0,"liitus_a":null}},{"type":"Feature","id":"eraldis.402","geometry":{"type":"MultiPolygon","coordinates":[[[[24.50213415,58.19406847],[24.50211517,58.19411907],[24.50127812,58.19403322],[24.50127755,58.1939931],[24.50128015,58.19397823],[24.50156812,58.19344658],[24.50187547,58.1930917],[24.50107628,58.19289573],[24.50028588,58.19371912],[24.50021806,58.1938992],[24.50020716,58.1939245],[24.5001677,58.1939202],[24.49992531,58.19389441],[24.49949976,58.1938515],[24.498643,58.19376422],[24.49864575,58.19375975],[24.49884523,58.19333694],[24.49900201,58.19307924],[24.49919579,58.19285112],[24.49942211,58.19273581],[24.49965465,58.19266208],[24.49944561,58.19260643],[24.49932638,58.1925326],[24.49920083,58.19240975],[24.49916612,58.19234302],[24.49913722,58.19228963],[24.49905594,58.19211312],[24.49902742,58.19208648],[24.4987536,58.19182602],[24.49857547,58.19176579],[24.49832177,58.19173558],[24.49735189,58.19160415],[24.4967598,58.19152325],[24.49678694,58.19145182],[24.49708933,58.19074181],[24.49721068,58.19016476],[24.4972256,58.1898244],[24.49724911,58.18969503],[24.4973351,58.18960701],[24.4985553,58.189733],[24.49868686,58.18988406],[24.4987644,58.1899952],[24.49877198,58.19013337],[24.49899897,58.19026622],[24.49909056,58.19037583],[24.4993237,58.1905458],[24.49966564,58.19064848],[24.49986049,58.19049763],[24.49991746,58.19034731],[24.49981476,58.19024816],[24.49949437,58.19007704],[24.49934902,58.18994684],[24.49933025,58.18981317],[24.50070545,58.18995487],[24.50074209,58.18995919],[24.50017906,58.19053947],[24.50018021,58.19062119],[24.50018141,58.19070589],[24.50011287,58.19083396],[24.50016881,58.19100909],[24.5003528,58.19108564],[24.50054744,58.19111905],[24.50079233,58.19112403],[24.50109883,58.19110796],[24.50124404,58.19102863],[24.50128958,58.19086647],[24.5013131,58.19073858],[24.50145238,58.19063847],[24.50153247,58.19053116],[24.50160272,58.19032581],[24.50172278,58.19006083],[24.50242166,58.19013236],[24.50239857,58.19028997],[24.50227352,58.19059956],[24.50224128,58.19090581],[24.50229556,58.19096355],[24.50240043,58.19101663],[24.50251906,58.19104736],[24.50275195,58.19100038],[24.50335337,58.19074686],[24.50336177,58.19074385],[24.50323964,58.19106086],[24.50321791,58.19111593],[24.50321793,58.19111741],[24.50317999,58.1912201],[24.50297134,58.19178561],[24.50234093,58.19158304],[24.50216265,58.19171154],[24.50167381,58.19196758],[24.5013801,58.19209208],[24.50246333,58.19227652],[24.50278979,58.1922782],[24.50252431,58.19300443],[24.50250527,58.19305057],[24.50229939,58.19361459],[24.50213415,58.19406847]]]]},"geometry_name":"shape","properties":{"sys_id":20078498,"versioon":1.738062903175E12,"id":1695671,"invent_kp":"2012-01-01Z","registreerimise_kp":"2014-04-02T10:31:04Z","katastri_nr":"21401:001:0123","kvartali_nr":"SJ271","eraldise_nr":8,"pindala":9.6,"kuivendatud":false,"kasvukoht_kood":"SM","peapuuliik_kood":"MA","omandivorm_kood":"R","vkood":214,"mkood":68,"korgus":18.4,"boniteedi_kood":"4","arengukl_kood":"Y","keskm_vanus":188,"tuleohu_kood":"-","keskm_raievanus":110,"juurdekasv":0.6,"rpindala_1":16,"taius_1":45,"rpindala_2":0,"taius_2":0,"tagavara_1_ha":171,"tagavara_2_ha":0,"tagavara_y_ha":0,"puude_arv":null,"puude_arv_j":null,"puude_arv_y":null,"tagavara_s_ha":15,"tagavara_l_ha":20,"liitus_a":null}},{"type":"Feature","id":"eraldis.410","geometry":{"type":"MultiPolygon","coordinates":[[[[25.14093512,58.34951885],[25.14149817,58.34942042],[25.14202736,58.34930478],[25.14252513,58.3492478],[25.1432943,58.3492391],[25.14377152,58.34914244],[25.1439939,58.34887896],[25.1438554,58.34853852],[25.14526024,58.34864099],[25.14617327,58.34870758],[25.14732329,58.34879145],[25.15007218,58.34899187],[25.14977438,58.34997916],[25.14975796,58.35008169],[25.14968357,58.35006904],[25.14948135,58.35064254],[25.14943148,58.35078401],[25.14779228,58.35016511],[25.14657115,58.34974302],[25.14563272,58.34956467],[25.14462529,58.34972313],[25.14400695,58.35010224],[25.14316084,58.35030594],[25.14241297,58.35025194],[25.14219687,58.35043598],[25.14247658,58.35084439],[25.14206881,58.35172428],[25.14179768,58.35177419],[25.14190278,58.35162896],[25.14194378,58.35153357],[25.14200603,58.35138872],[25.1420645,58.35113722],[25.14204792,58.3509681],[25.14192558,58.35067581],[25.14143261,58.35043401],[25.14106083,58.35034468],[25.1407782,58.35031623],[25.14055353,58.35036547],[25.14041617,58.35043337],[25.13985099,58.35060151],[25.13970566,58.35066644],[25.1392556,58.35080044],[25.13910586,58.35097689],[25.13911227,58.35117528],[25.13919675,58.35138465],[25.13933524,58.35154685],[25.13957192,58.35165563],[25.13987257,58.35168213],[25.14018376,58.35169102],[25.14040557,58.35168321],[25.1398438,58.35182247],[25.13923964,58.35197224],[25.13559215,58.35193313],[25.1370753,58.3510981],[25.13975372,58.34975467],[25.14093512,58.34951885]]]]},"geometry_name":"shape","properties":{"sys_id":19805833,"versioon":1.738062786669E12,"id":10723559,"invent_kp":"2021-02-04Z","registreerimise_kp":"2021-02-05T13:18:59.012Z","katastri_nr":"36001:002:0181","kvartali_nr":"SS265","eraldise_nr":103,"pindala":10.55,"kuivendatud":false,"kasvukoht_kood":"SS","peapuuliik_kood":"MA","omandivorm_kood":"R","vkood":615,"mkood":84,"korgus":13.3,"boniteedi_kood":"5","arengukl_kood":"K","keskm_vanus":71,"tuleohu_kood":"4","keskm_raievanus":120,"juurdekasv":3.4,"rpindala_1":22,"taius_1":85,"rpindala_2":null,"taius_2":null,"tagavara_1_ha":130,"tagavara_2_ha":null,"tagavara_y_ha":null,"puude_arv":null,"puude_arv_j":null,"puude_arv_y":null,"tagavara_s_ha":null,"tagavara_l_ha":null,"liitus_a":null}},{"type":"Feature","id":"eraldis.411","geometry":{"type":"MultiPolygon","coordinates":[[[[25.13110055,58.34920827],[25.13117549,58.349282],[25.13110794,58.34938399],[25.13104147,58.34948437],[25.13064675,58.34963962],[25.13013935,58.34974334],[25.12958941,58.34990581],[25.12910582,58.34998886],[25.12882895,58.3500364],[25.1289013,58.34982211],[25.12893105,58.34972717],[25.13110055,58.34920827]]]]},"geometry_name":"shape","properties":{"sys_id":19805834,"versioon":1.738062786669E12,"id":10723503,"invent_kp":"2021-02-05Z","registreerimise_kp":"2021-02-05T13:18:59.012Z","katastri_nr":"36001:002:0181","kvartali_nr":"SS265","eraldise_nr":107,"pindala":0.42,"kuivendatud":false,"kasvukoht_kood":"KM","peapuuliik_kood":"MA","omandivorm_kood":"R","vkood":615,"mkood":84,"korgus":24.4,"boniteedi_kood":"2","arengukl_kood":"K","keskm_vanus":58,"tuleohu_kood":"3","keskm_raievanus":90,"juurdekasv":7.2,"rpindala_1":28,"taius_1":87,"rpindala_2":null,"taius_2":null,"tagavara_1_ha":235,"tagavara_2_ha":null,"tagavara_y_ha":null,"puude_arv":null,"puude_arv_j":null,"puude_arv_y":null,"tagavara_s_ha":null,"tagavara_l_ha":null,"liitus_a":null}},{"type":"Feature","id":"eraldis.417","geometry":{"type":"MultiPolygon","coordinates":[[[[24.3596824,58.43291346],[24.35939076,58.43293798],[24.35875576,58.43289963],[24.35862312,58.43239927],[24.35963649,58.43230727],[24.36097627,58.43281168],[24.36052357,58.43287239],[24.35998477,58.43283378],[24.3596824,58.43291346]]]]},"geometry_name":"shape","properties":{"sys_id":19805841,"versioon":1.738062786672E12,"id":1321454,"invent_kp":"2020-09-27Z","registreerimise_kp":"2020-11-11T11:06:40.864Z","katastri_nr":"15902:001:0387","kvartali_nr":null,"eraldise_nr":30,"pindala":0.61,"kuivendatud":true,"kasvukoht_kood":"MS","peapuuliik_kood":"MA","omandivorm_kood":"J","vkood":624,"mkood":68,"korgus":27.5,"boniteedi_kood":"1","arengukl_kood":"K","keskm_vanus":80,"tuleohu_kood":"2","keskm_raievanus":89,"juurdekasv":4.8,"rpindala_1":22.9,"taius_1":67,"rpindala_2":2.4,"taius_2":15,"tagavara_1_ha":252,"tagavara_2_ha":10,"tagavara_y_ha":0,"puude_arv":null,"puude_arv_j":null,"puude_arv_y":null,"tagavara_s_ha":null,"tagavara_l_ha":null,"liitus_a":null}}],"totalFeatures":78103,"numberMatched":78103,"numberReturned":25,"timeStamp":"2026-05-25T11:24:02.079Z","crs":{"type":"name","properties":{"name":"urn:ogc:def:crs:EPSG::4326"}}}